[
    {
        "Altitude(m)": 561736.5765181696,
        "Argument of Periapsis(deg)": 0.019868973332140504,
        "Eccentricity": 0.0,
        "Inclination(deg)": 53.0,
        "Latitude(deg)": -28.01370691849019,
        "Longitude(deg)": 66.11735503856589,
        "Mean Anomaly(deg)": -144.27062139726726,
        "RAAN(deg)": 324.97043010558406,
        "Satellite Name": "Starlink Shell 1 1441",
        "Satellite Number": 1441,
        "Semi-Major Axis(m)": 6931778.249405717,
        "Time(s)": 570
    },
    {
        "Altitude(m)": 561910.5900638091,
        "Argument of Periapsis(deg)": 0.02021755181165174,
        "Eccentricity": 0.0,
        "Inclination(deg)": 53.0,
        "Latitude(deg)": -28.473215933976444,
        "Longitude(deg)": 66.5598272000479,
        "Mean Anomaly(deg)": -143.6437901937106,
        "RAAN(deg)": 324.96991133550654,
        "Satellite Name": "Starlink Shell 1 1441",
        "Satellite Number": 1441,
        "Semi-Major Axis(m)": 6931778.249405717,
        "Time(s)": 580
    },
    {
        "Altitude(m)": 562084.9849141047,
        "Argument of Periapsis(deg)": 0.020566130291162974,
        "Eccentricity": 0.0,
        "Inclination(deg)": 53.0,
        "Latitude(deg)": -28.93094495697042,
        "Longitude(deg)": 67.00647767243062,
        "Mean Anomaly(deg)": -143.01695899015377,
        "RAAN(deg)": 324.96939256542913,
        "Satellite Name": "Starlink Shell 1 1441",
        "Satellite Number": 1441,
        "Semi-Major Axis(m)": 6931778.249405717,
        "Time(s)": 590
    },
    {
        "Altitude(m)": 562259.6962313963,
        "Argument of Periapsis(deg)": 0.020914708770674213,
        "Eccentricity": 0.0,
        "Inclination(deg)": 53.0,
        "Latitude(deg)": -29.386845620186527,
        "Longitude(deg)": 67.45740691031975,
        "Mean Anomaly(deg)": -142.3901277865971,
        "RAAN(deg)": 324.9688737953516,
        "Satellite Name": "Starlink Shell 1 1441",
        "Satellite Number": 1441,
        "Semi-Major Axis(m)": 6931778.249405717,
        "Time(s)": 600
    },
    {
        "Altitude(m)": 562434.6588897333,
        "Argument of Periapsis(deg)": 0.021263287250185448,
        "Eccentricity": 0.0,
        "Inclination(deg)": 53.0,
        "Latitude(deg)": -29.840868479340045,
        "Longitude(deg)": 67.91271666291527,
        "Mean Anomaly(deg)": -141.7632965830404,
        "RAAN(deg)": 324.96835502527415,
        "Satellite Name": "Starlink Shell 1 1441",
        "Satellite Number": 1441,
        "Semi-Major Axis(m)": 6931778.249405717,
        "Time(s)": 610
    },
    {
        "Altitude(m)": 562609.807504112,
        "Argument of Periapsis(deg)": 0.021611865729696686,
        "Eccentricity": 0.0,
        "Inclination(deg)": 53.0,
        "Latitude(deg)": -30.292962982577517,
        "Longitude(deg)": 68.37251047057934,
        "Mean Anomaly(deg)": -141.13646537948367,
        "RAAN(deg)": 324.96783625519674,
        "Satellite Name": "Starlink Shell 1 1441",
        "Satellite Number": 1441,
        "Semi-Major Axis(m)": 6931778.249405717,
        "Time(s)": 620
    },
    {
        "Altitude(m)": 562785.0764597777,
        "Argument of Periapsis(deg)": 0.02196044420920792,
        "Eccentricity": 0.0,
        "Inclination(deg)": 53.0,
        "Latitude(deg)": -30.743077439526147,
        "Longitude(deg)": 68.83689247679838,
        "Mean Anomaly(deg)": -140.50963417592692,
        "RAAN(deg)": 324.9673174851192,
        "Satellite Name": "Starlink Shell 1 1441",
        "Satellite Number": 1441,
        "Semi-Major Axis(m)": 6931778.249405717,
        "Time(s)": 630
    },
    {
        "Altitude(m)": 562960.399941657,
        "Argument of Periapsis(deg)": 0.02230902268871916,
        "Eccentricity": 0.0,
        "Inclination(deg)": 53.0,
        "Latitude(deg)": -31.191158989989695,
        "Longitude(deg)": 69.30596875766565,
        "Mean Anomaly(deg)": -139.88280297237023,
        "RAAN(deg)": 324.9667987150417,
        "Satellite Name": "Starlink Shell 1 1441",
        "Satellite Number": 1441,
        "Semi-Major Axis(m)": 6931778.249405717,
        "Time(s)": 640
    },
    {
        "Altitude(m)": 563135.7119638511,
        "Argument of Periapsis(deg)": 0.022657601168230398,
        "Eccentricity": 0.0,
        "Inclination(deg)": 53.0,
        "Latitude(deg)": -31.63715357233441,
        "Longitude(deg)": 69.7798461256641,
        "Mean Anomaly(deg)": -139.2559717688135,
        "RAAN(deg)": 324.9662799449643,
        "Satellite Name": "Starlink Shell 1 1441",
        "Satellite Number": 1441,
        "Semi-Major Axis(m)": 6931778.249405717,
        "Time(s)": 650
    },
    {
        "Altitude(m)": 563310.9463992136,
        "Argument of Periapsis(deg)": 0.023006179647741636,
        "Eccentricity": 0.0,
        "Inclination(deg)": 53.0,
        "Latitude(deg)": -32.0810058916009,
        "Longitude(deg)": 70.25863260983797,
        "Mean Anomaly(deg)": -138.62914056525682,
        "RAAN(deg)": 324.9657611748868,
        "Satellite Name": "Starlink Shell 1 1441",
        "Satellite Number": 1441,
        "Semi-Major Axis(m)": 6931778.249405717,
        "Time(s)": 660
    },
    {
        "Altitude(m)": 563486.0370089717,
        "Argument of Periapsis(deg)": 0.023354758127252868,
        "Eccentricity": 0.0,
        "Inclination(deg)": 53.0,
        "Latitude(deg)": -32.5226593873945,
        "Longitude(deg)": 70.74243793103777,
        "Mean Anomaly(deg)": -138.00230936170004,
        "RAAN(deg)": 324.9652424048093,
        "Satellite Name": "Starlink Shell 1 1441",
        "Satellite Number": 1441,
        "Semi-Major Axis(m)": 6931778.249405717,
        "Time(s)": 670
    },
    {
        "Altitude(m)": 563660.9174723937,
        "Argument of Periapsis(deg)": 0.023703336606764106,
        "Eccentricity": 0.0,
        "Inclination(deg)": 53.0,
        "Latitude(deg)": -32.96205620160643,
        "Longitude(deg)": 71.2313724589926,
        "Mean Anomaly(deg)": -137.37547815814344,
        "RAAN(deg)": 324.96472363473185,
        "Satellite Name": "Starlink Shell 1 1441",
        "Satellite Number": 1441,
        "Semi-Major Axis(m)": 6931778.249405717,
        "Time(s)": 680
    },
    {
        "Altitude(m)": 563835.5214164788,
        "Argument of Periapsis(deg)": 0.024051915086275345,
        "Eccentricity": 0.0,
        "Inclination(deg)": 53.0,
        "Latitude(deg)": -33.399137146026256,
        "Longitude(deg)": 71.72554767656892,
        "Mean Anomaly(deg)": -136.74864695458663,
        "RAAN(deg)": 324.9642048646544,
        "Satellite Name": "Starlink Shell 1 1441",
        "Satellite Number": 1441,
        "Semi-Major Axis(m)": 6931778.249405717,
        "Time(s)": 690
    },
    {
        "Altitude(m)": 564009.7824456755,
        "Argument of Periapsis(deg)": 0.024400493565786583,
        "Eccentricity": 0.0,
        "Inclination(deg)": 53.0,
        "Latitude(deg)": -33.833841669911386,
        "Longitude(deg)": 72.22507663793219,
        "Mean Anomaly(deg)": -136.12181575102989,
        "RAAN(deg)": 324.9636860945769,
        "Satellite Name": "Starlink Shell 1 1441",
        "Satellite Number": 1441,
        "Semi-Major Axis(m)": 6931778.249405717,
        "Time(s)": 700
    },
    {
        "Altitude(m)": 564183.6341715604,
        "Argument of Periapsis(deg)": 0.024749072045297815,
        "Eccentricity": 0.0,
        "Inclination(deg)": 53.0,
        "Latitude(deg)": -34.26610782759138,
        "Longitude(deg)": 72.73007290731222,
        "Mean Anomaly(deg)": -135.49498454747322,
        "RAAN(deg)": 324.96316732449947,
        "Satellite Name": "Starlink Shell 1 1441",
        "Satellite Number": 1441,
        "Semi-Major Axis(m)": 6931778.249405717,
        "Time(s)": 710
    },
    {
        "Altitude(m)": 564357.0102425512,
        "Argument of Periapsis(deg)": 0.025097650524809053,
        "Eccentricity": 0.0,
        "Inclination(deg)": 53.0,
        "Latitude(deg)": -34.69587224618682,
        "Longitude(deg)": 73.24065100366897,
        "Mean Anomaly(deg)": -134.86815334391656,
        "RAAN(deg)": 324.96264855442195,
        "Satellite Name": "Starlink Shell 1 1441",
        "Satellite Number": 1441,
        "Semi-Major Axis(m)": 6931778.249405717,
        "Time(s)": 720
    },
    {
        "Altitude(m)": 564529.844373551,
        "Argument of Periapsis(deg)": 0.02544622900432029,
        "Eccentricity": 0.0,
        "Inclination(deg)": 53.0,
        "Latitude(deg)": -35.12307009353367,
        "Longitude(deg)": 73.75692683791648,
        "Mean Anomaly(deg)": -134.24132214035978,
        "RAAN(deg)": 324.9621297843445,
        "Satellite Name": "Starlink Shell 1 1441",
        "Satellite Number": 1441,
        "Semi-Major Axis(m)": 6931778.249405717,
        "Time(s)": 730
    },
    {
        "Altitude(m)": 564702.0703755666,
        "Argument of Periapsis(deg)": 0.02579480748383153,
        "Eccentricity": 0.0,
        "Inclination(deg)": 53.0,
        "Latitude(deg)": -35.5476350464152,
        "Longitude(deg)": 74.27901662934808,
        "Mean Anomaly(deg)": -133.61449093680307,
        "RAAN(deg)": 324.961611014267,
        "Satellite Name": "Starlink Shell 1 1441",
        "Satellite Number": 1441,
        "Semi-Major Axis(m)": 6931778.249405717,
        "Time(s)": 740
    },
    {
        "Altitude(m)": 564873.6221852676,
        "Argument of Periapsis(deg)": 0.026143385963342765,
        "Eccentricity": 0.0,
        "Inclination(deg)": 53.0,
        "Latitude(deg)": -35.96949925920879,
        "Longitude(deg)": 74.80703732650002,
        "Mean Anomaly(deg)": -132.9876597332464,
        "RAAN(deg)": 324.96109224418956,
        "Satellite Name": "Starlink Shell 1 1441",
        "Satellite Number": 1441,
        "Semi-Major Axis(m)": 6931778.249405717,
        "Time(s)": 750
    }
]